CCSDS_OMM_VERS = 2.0
CREATION_DATE  = 
ORIGINATOR     = 

OBJECT_NAME    = STARLINK-36552
OBJECT_ID      = 2026-012L
CENTER_NAME    = EARTH
REF_FRAME      = TEME
TIME_SYSTEM    = UTC
MEAN_ELEMENT_THEORY = SGP/SGP4

EPOCH          = 2026-02-12T22:00:03.000096
MEAN_MOTION    = 15.47245658
ECCENTRICITY   = .00009175
INCLINATION    = 43.0001
RA_OF_ASC_NODE = 94.5451
ARG_OF_PERICENTER = 285.9122
MEAN_ANOMALY   = 314.6287

EPHEMERIS_TYPE = 0
CLASSIFICATION_TYPE = U
NORAD_CAT_ID   = 67503
ELEMENT_SET_NO = 999
REV_AT_EPOCH   = 509
BSTAR          = -.40218277E-1
MEAN_MOTION_DOT = -.1885083E-1
MEAN_MOTION_DDOT = 0

CCSDS_OMM_VERS = 2.0
CREATION_DATE  = 
ORIGINATOR     = 

OBJECT_NAME    = STARLINK-36512
OBJECT_ID      = 2026-012M
CENTER_NAME    = EARTH
REF_FRAME      = TEME
TIME_SYSTEM    = UTC
MEAN_ELEMENT_THEORY = SGP/SGP4

EPOCH          = 2026-02-12T22:00:03.000096
MEAN_MOTION    = 15.50900832
ECCENTRICITY   = .00011315
INCLINATION    = 43.0008
RA_OF_ASC_NODE = 94.6517
ARG_OF_PERICENTER = 276.5448
MEAN_ANOMALY   = 279.7925

EPHEMERIS_TYPE = 0
CLASSIFICATION_TYPE = U
NORAD_CAT_ID   = 67504
ELEMENT_SET_NO = 999
REV_AT_EPOCH   = 509
BSTAR          = -.17200402E-1
MEAN_MOTION_DOT = -.93727E-2
MEAN_MOTION_DDOT = 0

CCSDS_OMM_VERS = 2.0
CREATION_DATE  = 
ORIGINATOR     = 

OBJECT_NAME    = STARLINK-36545
OBJECT_ID      = 2026-012N
CENTER_NAME    = EARTH
REF_FRAME      = TEME
TIME_SYSTEM    = UTC
MEAN_ELEMENT_THEORY = SGP/SGP4

EPOCH          = 2026-02-12T22:00:03.000096
MEAN_MOTION    = 15.50725779
ECCENTRICITY   = .00013293
INCLINATION    = 43.0008
RA_OF_ASC_NODE = 94.6063
ARG_OF_PERICENTER = 270.9778
MEAN_ANOMALY   = 303.7072

EPHEMERIS_TYPE = 0
CLASSIFICATION_TYPE = U
NORAD_CAT_ID   = 67505
ELEMENT_SET_NO = 999
REV_AT_EPOCH   = 509
BSTAR          = -.69552151E-2
MEAN_MOTION_DOT = -.390701E-2
MEAN_MOTION_DDOT = 0

CCSDS_OMM_VERS = 2.0
CREATION_DATE  = 
ORIGINATOR     = 

OBJECT_NAME    = STARLINK-36553
OBJECT_ID      = 2026-012P
CENTER_NAME    = EARTH
REF_FRAME      = TEME
TIME_SYSTEM    = UTC
MEAN_ELEMENT_THEORY = SGP/SGP4

EPOCH          = 2026-02-12T22:00:03.000096
MEAN_MOTION    = 15.50830696
ECCENTRICITY   = .0000859
INCLINATION    = 43.0007
RA_OF_ASC_NODE = 94.5054
ARG_OF_PERICENTER = 270.7767
MEAN_ANOMALY   = 344.7416

EPHEMERIS_TYPE = 0
CLASSIFICATION_TYPE = U
NORAD_CAT_ID   = 67506
ELEMENT_SET_NO = 999
REV_AT_EPOCH   = 509
BSTAR          = -.36902587E-1
MEAN_MOTION_DOT = -.1956275E-1
MEAN_MOTION_DDOT = 0

CCSDS_OMM_VERS = 2.0
CREATION_DATE  = 
ORIGINATOR     = 

OBJECT_NAME    = STARLINK-36521
OBJECT_ID      = 2026-012Q
CENTER_NAME    = EARTH
REF_FRAME      = TEME
TIME_SYSTEM    = UTC
MEAN_ELEMENT_THEORY = SGP/SGP4

EPOCH          = 2026-02-12T22:00:03.000096
MEAN_MOTION    = 15.50966885
ECCENTRICITY   = .00011037
INCLINATION    = 43.0007
RA_OF_ASC_NODE = 94.4956
ARG_OF_PERICENTER = 258.5511
MEAN_ANOMALY   = 1.1479

EPHEMERIS_TYPE = 0
CLASSIFICATION_TYPE = U
NORAD_CAT_ID   = 67507
ELEMENT_SET_NO = 999
REV_AT_EPOCH   = 509
BSTAR          = -.27434934E-1
MEAN_MOTION_DOT = -.1480102E-1
MEAN_MOTION_DDOT = 0

CCSDS_OMM_VERS = 2.0
CREATION_DATE  = 
ORIGINATOR     = 

OBJECT_NAME    = STARLINK-36526
OBJECT_ID      = 2026-012R
CENTER_NAME    = EARTH
REF_FRAME      = TEME
TIME_SYSTEM    = UTC
MEAN_ELEMENT_THEORY = SGP/SGP4

EPOCH          = 2026-02-12T22:00:03.000096
MEAN_MOTION    = 15.50702111
ECCENTRICITY   = .00011436
INCLINATION    = 43.0004
RA_OF_ASC_NODE = 94.4820
ARG_OF_PERICENTER = 258.0973
MEAN_ANOMALY   = 6.8388

EPHEMERIS_TYPE = 0
CLASSIFICATION_TYPE = U
NORAD_CAT_ID   = 67508
ELEMENT_SET_NO = 999
REV_AT_EPOCH   = 509
BSTAR          = -.60062704E-2
MEAN_MOTION_DOT = -.339335E-2
MEAN_MOTION_DDOT = 0

CCSDS_OMM_VERS = 2.0
CREATION_DATE  = 
ORIGINATOR     = 

OBJECT_NAME    = STARLINK-36541
OBJECT_ID      = 2026-012S
CENTER_NAME    = EARTH
REF_FRAME      = TEME
TIME_SYSTEM    = UTC
MEAN_ELEMENT_THEORY = SGP/SGP4

EPOCH          = 2026-02-12T13:27:38.019744
MEAN_MOTION    = 15.50584019
ECCENTRICITY   = .0000522
INCLINATION    = 43.0009
RA_OF_ASC_NODE = 97.6402
ARG_OF_PERICENTER = 273.0467
MEAN_ANOMALY   = 87.0333

EPHEMERIS_TYPE = 0
CLASSIFICATION_TYPE = U
NORAD_CAT_ID   = 67509
ELEMENT_SET_NO = 999
REV_AT_EPOCH   = 390
BSTAR          = .64459E-3
MEAN_MOTION_DOT = .37662E-3
MEAN_MOTION_DDOT = 0

CCSDS_OMM_VERS = 2.0
CREATION_DATE  = 
ORIGINATOR     = 

OBJECT_NAME    = STARLINK-36549
OBJECT_ID      = 2026-012T
CENTER_NAME    = EARTH
REF_FRAME      = TEME
TIME_SYSTEM    = UTC
MEAN_ELEMENT_THEORY = SGP/SGP4

EPOCH          = 2026-02-12T22:00:03.000096
MEAN_MOTION    = 15.49496257
ECCENTRICITY   = .00012344
INCLINATION    = 43.0004
RA_OF_ASC_NODE = 94.3565
ARG_OF_PERICENTER = 266.6075
MEAN_ANOMALY   = 45.6120

EPHEMERIS_TYPE = 0
CLASSIFICATION_TYPE = U
NORAD_CAT_ID   = 67510
ELEMENT_SET_NO = 999
REV_AT_EPOCH   = 503
BSTAR          = -.38690352E-1
MEAN_MOTION_DOT = -.1955614E-1
MEAN_MOTION_DDOT = 0

CCSDS_OMM_VERS = 2.0
CREATION_DATE  = 
ORIGINATOR     = 

OBJECT_NAME    = STARLINK-36540
OBJECT_ID      = 2026-012U
CENTER_NAME    = EARTH
REF_FRAME      = TEME
TIME_SYSTEM    = UTC
MEAN_ELEMENT_THEORY = SGP/SGP4

EPOCH          = 2026-02-12T11:52:29.146656
MEAN_MOTION    = 15.50605478
ECCENTRICITY   = .00015455
INCLINATION    = 42.9998
RA_OF_ASC_NODE = 98.0023
ARG_OF_PERICENTER = 283.1830
MEAN_ANOMALY   = 76.8858

EPHEMERIS_TYPE = 0
CLASSIFICATION_TYPE = U
NORAD_CAT_ID   = 67511
ELEMENT_SET_NO = 999
REV_AT_EPOCH   = 389
BSTAR          = .18378345E-2
MEAN_MOTION_DOT = .109093E-2
MEAN_MOTION_DDOT = 0

CCSDS_OMM_VERS = 2.0
CREATION_DATE  = 
ORIGINATOR     = 

OBJECT_NAME    = STARLINK-36538
OBJECT_ID      = 2026-012V
CENTER_NAME    = EARTH
REF_FRAME      = TEME
TIME_SYSTEM    = UTC
MEAN_ELEMENT_THEORY = SGP/SGP4

EPOCH          = 2026-02-12T22:00:03.000096
MEAN_MOTION    = 15.43238406
ECCENTRICITY   = .0001371
INCLINATION    = 43.0007
RA_OF_ASC_NODE = 94.7920
ARG_OF_PERICENTER = 293.6042
MEAN_ANOMALY   = 205.3205

EPHEMERIS_TYPE = 0
CLASSIFICATION_TYPE = U
NORAD_CAT_ID   = 67512
ELEMENT_SET_NO = 999
REV_AT_EPOCH   = 509
BSTAR          = -.47047652E-1
MEAN_MOTION_DOT = -.1916602E-1
MEAN_MOTION_DDOT = 0

CCSDS_OMM_VERS = 2.0
CREATION_DATE  = 
ORIGINATOR     = 

OBJECT_NAME    = STARLINK-36531
OBJECT_ID      = 2026-012W
CENTER_NAME    = EARTH
REF_FRAME      = TEME
TIME_SYSTEM    = UTC
MEAN_ELEMENT_THEORY = SGP/SGP4

EPOCH          = 2026-02-12T22:00:03.000096
MEAN_MOTION    = 15.44679657
ECCENTRICITY   = .00011551
INCLINATION    = 43.0004
RA_OF_ASC_NODE = 94.7019
ARG_OF_PERICENTER = 288.1534
MEAN_ANOMALY   = 247.1969

EPHEMERIS_TYPE = 0
CLASSIFICATION_TYPE = U
NORAD_CAT_ID   = 67513
ELEMENT_SET_NO = 999
REV_AT_EPOCH   = 503
BSTAR          = -.45401956E-1
MEAN_MOTION_DOT = -.1940283E-1
MEAN_MOTION_DDOT = 0

CCSDS_OMM_VERS = 2.0
CREATION_DATE  = 
ORIGINATOR     = 

OBJECT_NAME    = STARLINK-36530
OBJECT_ID      = 2026-012X
CENTER_NAME    = EARTH
REF_FRAME      = TEME
TIME_SYSTEM    = UTC
MEAN_ELEMENT_THEORY = SGP/SGP4

EPOCH          = 2026-02-12T22:00:03.000096
MEAN_MOTION    = 15.45810266
ECCENTRICITY   = .00011508
INCLINATION    = 43.0001
RA_OF_ASC_NODE = 94.7378
ARG_OF_PERICENTER = 288.1320
MEAN_ANOMALY   = 232.4996

EPHEMERIS_TYPE = 0
CLASSIFICATION_TYPE = U
NORAD_CAT_ID   = 67514
ELEMENT_SET_NO = 999
REV_AT_EPOCH   = 503
BSTAR          = -.43813726E-1
MEAN_MOTION_DOT = -.1946332E-1
MEAN_MOTION_DDOT = 0

