STARLINK-36552          
1 67503U 26012L   26043.91670139 -.01885083  00000+0 -40218-1 0  9993
2 67503  43.0001  94.5451 0000917 285.9122 314.6287 15.47245658  5097
STARLINK-36512          
1 67504U 26012M   26043.91670139 -.00937270  00000+0 -17200-1 0  9994
2 67504  43.0008  94.6517 0001131 276.5448 279.7925 15.50900832  5091
STARLINK-36545          
1 67505U 26012N   26043.91670139 -.00390701  00000+0 -69552-2 0  9995
2 67505  43.0008  94.6063 0001329 270.9778 303.7072 15.50725779  5097
STARLINK-36553          
1 67506U 26012P   26043.91670139 -.01956275  00000+0 -36903-1 0  9994
2 67506  43.0007  94.5054 0000859 270.7767 344.7416 15.50830696  5091
STARLINK-36521          
1 67507U 26012Q   26043.91670139 -.01480102  00000+0 -27435-1 0  9996
2 67507  43.0007  94.4956 0001103 258.5511   1.1479 15.50966885  5099
STARLINK-36526          
1 67508U 26012R   26043.91670139 -.00339335  00000+0 -60063-2 0  9992
2 67508  43.0004  94.4820 0001143 258.0973   6.8388 15.50702111  5099
STARLINK-36541          
1 67509U 26012S   26043.56085671  .00037662  00000+0  64459-3 0  9995
2 67509  43.0009  97.6402 0000522 273.0467  87.0333 15.50584019  3905
STARLINK-36549          
1 67510U 26012T   26043.91670139 -.01955614  00000+0 -38690-1 0  9990
2 67510  43.0004  94.3565 0001234 266.6075  45.6120 15.49496257  5034
STARLINK-36540          
1 67511U 26012U   26043.49478179  .00109093  00000+0  18378-2 0  9995
2 67511  42.9998  98.0023 0001545 283.1830  76.8858 15.50605478  3898
STARLINK-36538          
1 67512U 26012V   26043.91670139 -.01916602  00000+0 -47048-1 0  9993
2 67512  43.0007  94.7920 0001371 293.6042 205.3205 15.43238406  5093
STARLINK-36531          
1 67513U 26012W   26043.91670139 -.01940283  00000+0 -45402-1 0  9998
2 67513  43.0004  94.7019 0001155 288.1534 247.1969 15.44679657  5038
STARLINK-36530          
1 67514U 26012X   26043.91670139 -.01946332  00000+0 -43814-1 0  9995
2 67514  43.0001  94.7378 0001150 288.1320 232.4996 15.45810266  5033
